BEESAT-4                
1 41619U 16040W   22321.35931193  .00017933  00000+0  50883-3 0  9995
2 41619  97.1968   8.1822 0006410 291.4554  68.6006 15.36251454344154
RAVAN                   
1 41849U 16067B   22321.35273397  .00005347  00000+0  41275-3 0  9995
2 41849  98.0094 102.9829 0016912 180.7211 179.3991 15.01901895328931
CELTEE 1                
1 41850U 16067C   22321.33390833  .00003447  00000+0  28785-3 0  9990
2 41850  98.0192  97.4518 0008777 169.4829 190.6578 14.99225255328655
OPTICUBE 04             
1 41851U 16067D   22321.32721137  .00002354  00000+0  20311-3 0  9998
2 41851  98.0178  96.2846 0008782 180.3307 179.7911 14.98279993328599
AEROCUBE 8D             
1 41852U 16067E   22321.66356057  .00003805  00000+0  31706-3 0  9993
2 41852  98.0162  96.7815 0009457 173.1088 187.0266 14.99227417328646
AEROCUBE 8C             
1 41853U 16067F   22321.64754263  .00003135  00000+0  26239-3 0  9994
2 41853  98.0131  96.5718 0010618 185.9261 174.1837 14.99189089328630
PROMETHEUS 2-1          
1 41854U 16067G   22321.34269499  .00005481  00000+0  43358-3 0  9991
2 41854  98.0301  97.7232 0016446 199.3146 160.7455 15.00965913328661
PROMETHEUS 2-3          
1 41855U 16067H   22321.33379872  .00005564  00000+0  44046-3 0  9995
2 41855  98.0283  97.7706 0012770 220.5757 139.4515 15.00971608328666
INS-1B                  
1 41954U 17008G   22321.13821055  .00016197  00000+0  45921-3 0  9991
2 41954  97.2381  18.1137 0007777  56.3576 303.8410 15.36288492320143
BGUSAT                  
1 41999U 17008BD  22321.15637560  .00061781  00000+0  91784-3 0  9995
2 41999  97.2627  32.0188 0003249  44.4151 315.7363 15.54980854320233
DIDO-2                  
1 42000U 17008BE  22321.11369962  .00007313  00000+0  24630-3 0  9990
2 42000  97.2379  16.6077 0008667  78.9665 281.2551 15.31013808319401
PEASSS                  
1 42015U 17008BV  22321.43484719  .00014009  00000+0  40432-3 0  9997
2 42015  97.2443  21.7109 0006066  71.3852 288.8050 15.35774331320215
AL-FARABI 1             
1 42016U 17008BW  22321.42087614  .00021582  00000+0  53117-3 0  9998
2 42016  97.2511  25.6627 0004988  68.8492 291.3287 15.40612342320548
NAYIF-1 (EO-88)         
1 42017U 17008BX  22321.15887185  .00023095  00000+0  56375-3 0  9990
2 42017  97.2504  25.4387 0005234  67.5421 292.6379 15.40846452320531
UCLSAT                  
1 42765U 17036A   22321.54171308  .00014409  00000+0  43952-3 0  9993
2 42765  97.1790 359.6261 0009901 128.4019 231.8115 15.33987618301281
LITUANICASAT-2          
1 42768U 17036D   22321.07401787  .00042925  00000+0  87649-3 0  9996
2 42768  97.1852   3.8523 0009835 110.8657 249.3647 15.46005673300730
AALTO-1                 
1 42775U 17036L   22321.35515900  .00007453  00000+0  27497-3 0  9990
2 42775  97.1815 353.4491 0013070 137.1009 223.1253 15.27977128300100
URSA MAIOR              
1 42776U 17036M   22321.33548838  .00008166  00000+0  29367-3 0  9995
2 42776  97.1829 354.3338 0012743 135.3753 224.8515 15.28793067300140
COMPASS 2               
1 42777U 17036N   22321.34021243  .00024770  00000+0  63645-3 0  9999
2 42777  97.1855   2.4756 0010026 116.3722 243.8555 15.39230371300604
DIAMOND RED             
1 42783U 17036U   22321.09968327  .00009631  00000+0  32926-3 0  9998
2 42783  97.1828 356.7542 0010990 138.2549 221.9533 15.30416802300260
PEGASUS                 
1 42784U 17036V   22321.37075719  .00012297  00000+0  39090-3 0  9995
2 42784  97.1817 358.5362 0010637 133.2543 226.9589 15.32702362300409
DIAMOND GREEN           
1 42785U 17036W   22321.75302465  .00009787  00000+0  33359-3 0  9991
2 42785  97.1829 357.4538 0010836 137.6940 222.5139 15.30510293300351
DIAMOND BLUE            
1 42786U 17036X   22321.36020242  .00009553  00000+0  32605-3 0  9993
2 42786  97.1828 357.0651 0010893 138.9263 221.2801 15.30473450300375
NUDTSAT                 
1 42787U 17036Y   22321.85710586  .00031670  00000+0  76620-3 0  9995
2 42787  97.1824   4.5317 0008971 117.0307 243.1629 15.41026630300654
SUCHAI                  
1 42788U 17036Z   22321.08637233  .00016585  00000+0  48154-3 0  9997
2 42788  97.1815   0.3857 0009849 127.5250 232.6890 15.35517590300562
SKCUBE                  
1 42789U 17036AA  22321.56938039  .00014115  00000+0  42719-3 0  9997
2 42789  97.1817   0.1055 0010027 127.4346 232.7812 15.34240913300519
VZLUSAT-1               
1 42790U 17036AB  22321.56128035  .00025374  00000+0  62220-3 0  9994
2 42790  97.1830   4.1621 0008579 117.1245 243.0878 15.40665198300758
ROBUSTA 1B              
1 42792U 17036AD  22321.06802318  .00016055  00000+0  47231-3 0  9995
2 42792  97.1812   0.3248 0009475 128.3863 231.8233 15.35114314300493
CICERO 6                
1 42793U 17036AE  22321.53068772  .00008521  00000+0  29487-3 0  9998
2 42793  97.1806 357.6375 0009633 135.6858 224.5156 15.30070941300458
CORVUS BC2              
1 42846U 17042X   22321.34964897  .00001672  00000+0  16436-3 0  9996
2 42846  97.4022 169.8920 0008654 195.1948 164.9014 14.93359209291096
CORVUS BC1              
1 42847U 17042Y   22321.15238131  .00001611  00000+0  15817-3 0  9996
2 42847  97.4023 170.0363 0008365 194.4483 165.6499 14.93436477291074
MIRATA                  
1 43015U 17073C   22321.58597158  .00008820  00000+0  61484-3 0  9992
2 43015  97.6548 211.2460 0232598  37.1428 324.5629 14.86246884269991
MAKERSAT 0              
1 43016U 17073D   22321.21355822  .00005701  00000+0  41207-3 0  9999
2 43016  97.6554 210.0498 0241768  44.1266 317.8960 14.83833174269831
CORVUS BC3              
1 43118U 18004H   22321.17755881  .00008707  00000+0  30293-3 0  9993
2 43118  97.3481  32.0092 0008887 172.3063 187.8315 15.29904769269541
MICROMAS-2A             
1 43131U 18004W   22321.19021070  .00038660  00000+0  79998-3 0  9992
2 43131  97.3628  41.5365 0005363 156.5455 203.6039 15.45676046270085
SPACEBEE-4              
1 43139U 18004AE  22321.51870324  .00247713  00000+0  16581-2 0  9999
2 43139  97.3678  50.1995 0003079 237.2619 122.8349 15.74559866270611
CICERO 7                
1 43143U 18004AJ  22321.18427667  .00014968  00000+0  39054-3 0  9990
2 43143  97.3620  40.0877 0005723 159.9670 200.1801 15.38900819270010
GOMX-4B                 
1 43196U 18015E   22321.39794501  .00007752  00000+0  27458-3 0  9995
2 43196  97.5539 102.6172 0015545 235.1252 124.8527 15.29295133266511
GOMX-4A                 
1 43197U 18015F   22321.78318481  .00010942  00000+0  36239-3 0  9990
2 43197  97.5532 104.2469 0015271 232.5846 235.4276 15.31372325266666
AEROCUBE 12A            
1 43556U 18046C   22321.55519027  .00025005  00000+0  49749-3 0  9993
2 43556  51.6329 154.1269 0008144 222.8163 137.2191 15.46745497242947
AEROCUBE 12B            
1 43557U 18046D   22321.30118386  .00019103  00000+0  43472-3 0  9999
2 43557  51.6349 162.8364 0007891 217.8345 142.2087 15.42960337242753
SURFSAT                 
1 43614U 18070B   22321.77307046  .00096136  00000+0  69431-3 0  9998
2 43614  93.0035 164.3004 0008970 108.1176 252.1074 15.73175690234998
CP7 (DAVE)              
1 43615U 18070C   22321.09432455  .00072315  00000+0  62045-3 0  9994
2 43615  93.0032 163.6360 0009605 116.0295 244.1965 15.69104906234828
CUBEBEL-1 (BSUSAT-1)    
1 43666U 18083E   22321.79188490  .00013479  00000+0  51967-3 0  9995
2 43666  97.4079 348.9193 0013275 145.6330 332.2262 15.26358593224847
CICERO 10               
1 43690U 18088A   22321.22807680  .00010082  00000+0  37100-3 0  9994
2 43690  85.0385 214.7581 0010619 312.5778  47.4570 15.27666232223050
IRVINE01                
1 43693U 18088D   22321.41113119  .00087325  00000+0  12418-2 0  9993
2 43693  85.0248 206.1193 0001512 213.0930 147.0236 15.56066860223826
PROXIMA I               
1 43694U 18088E   22321.21539794  .00008923  00000+0  31050-3 0  9994
2 43694  85.0317 211.0652 0012791 270.1025  89.8755 15.29455947223297
PROXIMA II              
1 43696U 18088G   22321.15306388  .00009080  00000+0  31642-3 0  9992
2 43696  85.0318 211.1330 0012889 270.4092  89.5677 15.29408829223274
FACSAT-1                
1 43721U 18096C   22321.74003927  .00035325  00000+0  77897-3 0  9991
2 43721  97.3389  41.9607 0011611 214.5920 244.8032 15.43759067221553
CENTAURI-2              
1 43722U 18096D   22321.21231331  .00048362  00000+0  83968-3 0  9997
2 43722  97.3440  44.5502 0010476 215.1745 144.8816 15.50640797221641
INNOSAT-2               
1 43738U 18096V   22321.78673964  .00466874  00000+0  16905-2 0  9996
2 43738  97.3501  56.2329 0009074 237.8840 221.6640 15.87414300222416
SIRION PATHFINDER-2     
1 43759U 18099B   22321.48172366  .00001438  00000+0  12981-3 0  9991
2 43759  97.6043  24.1539 0015316 105.8538 254.4374 14.96959607215934
CORVUS BC4              
1 43767U 18099K   22321.43005596  .00001724  00000+0  15704-3 0  9999
2 43767  97.5983  22.3856 0012483 112.5968 247.6576 14.96364198215844
MOVE-II                 
1 43780U 18099Y   22321.41781857  .00004181  00000+0  34754-3 0  9999
2 43780  97.6105  25.2777 0013744 111.2738 248.9954 14.99179976215960
SPACEBEE-7              
1 43816U 18099BL  22321.15800258  .00002908  00000+0  24563-3 0  9999
2 43816  97.6112  25.7404 0013768  98.5026 261.7758 14.98797320215517
SPACEBEE-5              
1 43817U 18099BM  22321.18023320  .00010079  00000+0  72508-3 0  9990
2 43817  97.6205  29.8083 0006790  98.5332 261.6663 15.04407659215702
SPACEBEE-6              
1 43818U 18099BN  22321.12269413  .00005249  00000+0  42192-3 0  9999
2 43818  97.6114  26.9320 0015980 105.3122 254.9869 15.00339270215712
SHIELDS 1               
1 43850U 18104B   22321.42012698  .00004059  00000+0  16150-3 0  9999
2 43850  85.0251 310.6371 0016125  66.5211 293.7725 15.24810854217801
STF-1                   
1 43852U 18104D   22321.37634233  .00012560  00000+0  42890-3 0  9996
2 43852  85.0271 310.4109 0014979  76.6432 283.6483 15.30065567217892
